GLOBALSTAR M094         
1 39074U 13005C   24203.90018590 -.00000092  00000+0  66024-4 0  9998
2 39074  51.9958 107.7435 0000478  22.1630 337.9257 12.62286489530666
GLOBALSTAR M096         
1 39075U 13005D   24203.27996118 -.00000109  00000+0 -30999-4 0  9992
2 39075  52.0058 157.8879 0000188 301.6577  58.4271 12.62267713529502
GLOBALSTAR M078         
1 39076U 13005E   24203.57039269 -.00000097  00000+0  37086-4 0  9990
2 39076  51.9858 241.9663 0001213 158.0493 202.0425 12.62273291528376
GLOBALSTAR M095         
1 39077U 13005F   24203.59650548 -.00000066  00000+0  21163-3 0  9996
2 39077  51.9778 239.2457 0000794 190.0085 170.0766 12.62262642528027
GLOBALSTAR M087         
1 52888U 22064A   24203.85487329 -.00000061  00000+0  12772-3 0  9991
2 52888  51.9761  87.4964 0010059  90.9642 269.2411 13.37579048102167
